{"type":"FeatureCollection","features":[{"type":"Feature","properties":{"Gedung":"Vokasi","fill":"rgba(32, 136, 212, 0.73)"},"geometry":{"type":"Polygon","coordinates":[[[107.57525613920234,-6.87321375039663],[107.575244,-6.8733796],[107.5752284,-6.8735818],[107.5754813,-6.8736022],[107.5757866,-6.8736261],[107.5758047,-6.873455],[107.5758173,-6.8732678],[107.57525613920234,-6.87321375039663]]]}},{"type":"Feature","properties":{"Gedung":"Rektorat","fill":"rgba(239, 108, 1, 1)"},"geometry":{"type":"Polygon","coordinates":[[[107.57554191999844,-6.873679170698338],[107.57550139623737,-6.873868210086869],[107.5758225353868,-6.873940646663954],[107.57586630170601,-6.873752338700939],[107.57554191999844,-6.873679170698338]]]}},{"type":"Feature","properties":{"Gedung":"Gandaria","fill":"rgba(103, 47, 130, 1)"},"geometry":{"type":"Polygon","coordinates":[[[107.5751867521434,-6.87383468457665],[107.57517320444089,-6.873910506228242],[107.5754107,-6.8739488],[107.5754261,-6.8738676],[107.5753182,-6.8738504],[107.5751867521434,-6.87383468457665]]]}},{"type":"Feature","properties":{"Gedung":"Gandaria","fill":"#672f82"},"geometry":{"type":"Polygon","coordinates":[[[107.57517683027123,-6.873982974045106],[107.57516378746504,-6.874068640483884],[107.57534673615731,-6.874104604900879],[107.57536169844036,-6.8740193158029115],[107.57517683027123,-6.873982974045106]]]}},{"type":"Feature","properties":{"Gedung":"Satpam","fill":"rgba(18, 17, 31, 1)"},"geometry":{"type":"Polygon","coordinates":[[[107.57589255114038,-6.874119991179569],[107.57585749642948,-6.874288541769886],[107.57596196061189,-6.87430907753739],[107.57599826506521,-6.874140772631165],[107.57589255114038,-6.874119991179569]]]}},{"type":"Feature","properties":{"Gedung":"Genset","fill":"rgba(47, 130, 50, 1)"},"geometry":{"type":"Polygon","coordinates":[[[107.57595930958121,-6.874000975903073],[107.57593668238582,-6.874108265065658],[107.57608545755153,-6.874137511580599],[107.57610920338004,-6.8740304423274665],[107.57595930958121,-6.874000975903073]]]}},{"type":"Feature","properties":{"Gedung":"Auditorium","fill":"rgba(6, 251, 215, 1)"},"geometry":{"type":"Polygon","coordinates":[[[107.57602163456613,-6.873277558000154],[107.57594623125277,-6.8736540653040095],[107.57622623029738,-6.873709108117865],[107.57630901698309,-6.873334052299128],[107.57602163456613,-6.873277558000154]]]}},{"type":"Feature","properties":{"Gedung":"CoT","fill":"rgba(219, 204, 2, 1)"},"geometry":{"type":"Polygon","coordinates":[[[107.57650027731319,-6.8735329606184905],[107.57648102268905,-6.873625541107415],[107.57658323592847,-6.873645634407552],[107.57660390055884,-6.87355333110591],[107.57650027731319,-6.8735329606184905]]]}},{"type":"Feature","properties":{"Gedung":"Olahraga","fill":"rgba(230, 20, 51, 1)"},"geometry":{"type":"Polygon","coordinates":[[[107.57653882880908,-6.87316180957076],[107.5765105,-6.8734342],[107.576815,-6.8734768],[107.5768462,-6.8732093],[107.576711,-6.8731901],[107.57653882880908,-6.87316180957076]]]}},{"type":"Feature","properties":{"Gedung":"Koperasi","fill":"rgba(180, 158, 59, 1)"},"geometry":{"type":"Polygon","coordinates":[[[107.576564,-6.8734591],[107.576558,-6.8734952],[107.5766402,-6.873506],[107.5766445,-6.8734713],[107.5766054,-6.8734662],[107.576564,-6.8734591]]]}},{"type":"Feature","properties":{"Gedung":"Pendopo"},"geometry":{"type":"Polygon","coordinates":[[[107.57599782312377,-6.873062285735003],[107.57597459893759,-6.873191185215177],[107.57610034989125,-6.87321590563262],[107.5761248074474,-6.873087248619072],[107.57599782312377,-6.873062285735003]]]}},{"type":"Feature","properties":{"Gedung":"Logic Coffee","fill":"rgba(242, 208, 12, 1)"},"geometry":{"type":"Polygon","coordinates":[[[107.57596852744285,-6.873720648364397],[107.57595076373514,-6.873808254607624],[107.57608219566862,-6.87383409177265],[107.57610074861475,-6.873746640684345],[107.57596852744285,-6.873720648364397]]]}},{"type":"Feature","properties":{"Gedung":"ULBI"},"geometry":{"type":"Polygon","coordinates":[[[107.5759668887838,-6.87385123528118],[107.5759317,-6.87383],[107.57587132880656,-6.873927644486201],[107.5759093,-6.8739421],[107.5759668887838,-6.87385123528118]]]}},{"type":"Feature","properties":{"Gedung":"FLTB","fill":"rgba(18, 11, 237, 1)"},"geometry":{"type":"Polygon","coordinates":[[[107.57618804655539,-6.872508305898094],[107.5761049543168,-6.872945406357346],[107.57643480128411,-6.87301024848027],[107.57653142456581,-6.872575808049348],[107.57618804655539,-6.872508305898094]]]}},{"type":"Feature","properties":{"Gedung":"Anggrek","fill":"rgba(156, 8, 235, 1)"},"geometry":{"type":"Polygon","coordinates":[[[107.57549676468204,-6.872550246406831],[107.57543958733214,-6.872996028693464],[107.57584146577886,-6.873075030931119],[107.57591553677162,-6.872632569714668],[107.57549676468204,-6.872550246406831]]]}},{"type":"Feature","properties":{"Gedung":"Tenis","fill":"rgba(0, 255, 81, 1)"},"geometry":{"type":"Polygon","coordinates":[[[107.57676642582805,-6.872755165368872],[107.57670698755044,-6.873014337896095],[107.57698271054807,-6.873068540188612],[107.5770475720559,-6.872810433804744],[107.57676642582805,-6.872755165368872]]]}},{"type":"Feature","properties":{"Gedung":"Sarpras","fill":"rgba(63, 179, 79, 1)"},"geometry":{"type":"Polygon","coordinates":[[[107.57665227645987,-6.8729867854198545],[107.57663488552583,-6.873064175915104],[107.57668502384206,-6.873074032225944],[107.576702710375,-6.8729966998414795],[107.57665227645987,-6.8729867854198545]]]}},{"type":"Feature","properties":{"Asrama":"Raflesia","fill":"rgba(247, 255, 0, 1)"},"geometry":{"type":"Polygon","coordinates":[[[107.57680547129695,-6.872189093738825],[107.57671007082308,-6.872614027879919],[107.57706416979676,-6.872683637569452],[107.57717110204294,-6.872260970438674],[107.57680547129695,-6.872189093738825]]]}},{"type":"Feature","properties":{"Gedung":"Nurul Ilmi","fill":"rgba(5, 255, 180, 1)"},"geometry":{"type":"Polygon","coordinates":[[[107.57593879720383,-6.872762646253207],[107.57590463720999,-6.8729560052022975],[107.57598021803699,-6.872970863066541],[107.57601630398568,-6.872777882732322],[107.57593879720383,-6.872762646253207]]]}},{"type":"Feature","properties":{"Gedung":"Sekre HImpunan & UKM","fill":"rgba(76, 255, 11, 1)"},"geometry":{"type":"Polygon","coordinates":[[[107.57583911138391,-6.8723536037285555],[107.57581865049053,-6.872475676687429],[107.5760752208468,-6.872526113966302],[107.57609857062272,-6.872404608923716],[107.57583911138391,-6.8723536037285555]]]}},{"type":"Feature","properties":{},"geometry":{"type":"LineString","coordinates":[[107.5766785,-6.8726123],[107.5766043,-6.872974],[107.5764758,-6.8730348],[107.5764519,-6.8733065],[107.5763903,-6.8736072],[107.5761567,-6.8738149],[107.5759155,-6.8739783],[107.5758585,-6.8740264],[107.5758064,-6.8742812],[107.5758361,-6.8743553],[107.5758549,-6.8744247],[107.57564,-6.8748486]]}},{"type":"Feature","properties":{"Gedung":"YPBPI","fill":"rgba(255, 98, 0, 1)"},"geometry":{"type":"Polygon","coordinates":[[[107.57564044588275,-6.874449369660951],[107.5755463,-6.8746932],[107.5756423,-6.8747226],[107.57573079387811,-6.874467130435065],[107.57564044588275,-6.874449369660951]]]}},{"type":"Feature","properties":{},"geometry":{"type":"LineString","coordinates":[]}},{"type":"Feature","properties":{"Gedung":"ULBi"},"geometry":{"type":"LineString","coordinates":[[107.5759261,-6.8732984],[107.5758981,-6.873517],[107.5758616,-6.8736837],[107.5759115,-6.8737176],[107.5759006,-6.8737975]]}},{"type":"Feature","properties":{"Gedung":"ULBI"},"geometry":{"type":"LineString","coordinates":[[107.577149,-6.8721777],[107.5767914,-6.872135],[107.5767109,-6.872452],[107.5764634,-6.8724595],[107.5762301,-6.8724769],[107.5761151,-6.872391],[107.5758472,-6.8723197],[107.5757718,-6.8724459],[107.5755742,-6.8725133],[107.5754188,-6.8725733],[107.5753642,-6.8729953],[107.5753312,-6.8731802],[107.5751914,-6.8731714],[107.5751722,-6.8735144],[107.5751035,-6.8740157],[107.5751145,-6.8740878],[107.5752587,-6.8741871],[107.5756484,-6.8743635],[107.5755069,-6.8746714],[107.5754689,-6.8747661],[107.5756419,-6.8748421]]}},{"type":"Feature","properties":{},"geometry":{"type":"LineString","coordinates":[[107.5771446,-6.8721588],[107.5772545,-6.8723357],[107.5770999,-6.872972],[107.5769843,-6.8731358],[107.5768758,-6.8733283],[107.5768286,-6.8735471],[107.5756475,-6.8748536]]}}]}